IRIDIUM 136             
1 42962U 17061H   24236.59216858  .00000644  00000+0  22288-3 0  9997
2 42962  86.3968 302.1518 0002347  88.4067 271.7397 14.34220929359867
